SL-14 R/B               
1 16792U 86046B   25330.68274640  .00000563  00000+0  62257-4 0  9998
2 16792  82.4817 177.4781 0022439 205.2333 154.7789 14.85460280111114
SL-14 R/B               
1 16882U 86055B   25330.74746377  .00000654  00000+0  72864-4 0  9992
2 16882  82.5218 223.3978 0017925 316.5994  97.0999 14.85506987104087
AJISAI (EGS)            
1 16908U 86061A   25330.85397963 -.00000094  00000+0  24410-4 0  9996
2 16908  50.0110  49.5639 0011242  26.0176  95.9097 12.44514115455192
COSMOS 1812             
1 17295U 87003A   25330.38698784  .00082516  00000+0  62997-3 0  9995
2 17295  82.4879 309.6691 0006607 108.9028 251.2951 15.71887185128080
SL-14 R/B               
1 17567U 87024B   25330.68617301  .00000576  00000+0  63008-4 0  9990
2 17567  82.5286 189.5343 0016921 239.7908 120.1634 14.86000904 72838
COSMOS 1833             
1 17589U 87027A   25330.78975433 -.00000059  00000+0 -58292-5 0  9999
2 17589  70.9128 182.3073 0021864 354.1726   5.9137 14.13017931995774
SL-16 R/B               
1 17590U 87027B   25330.77962215  .00000274  00000+0  15962-3 0  9996
2 17590  71.0006 133.3483 0007313 276.0495  83.9795 14.17149136   761
SL-14 R/B               
1 17912U 87038B   25330.69562772  .00000598  00000+0  66670-4 0  9993
2 17912  82.5030  33.8110 0020285 141.7419 218.5241 14.85239003 63940
COSMOS 1844             
1 17973U 87041A   25330.79232943 -.00000025  00000+0  12324-4 0  9992
2 17973  70.8996 251.2053 0030770 181.9615 178.1391 14.14528477989036
SL-14 R/B               
1 18153U 87055B   25330.75769579  .00000671  00000+0  74717-4 0  9994
2 18153  82.4993  86.0488 0020566 358.1503   1.9633 14.85495619 54657
COSMOS 1867             
1 18187U 87060A   25330.46463422  .00000003  00000+0  38804-4 0  9999
2 18187  65.0103 235.7782 0013630 269.4658  90.4864 14.31482403  5162
COSMOS 1892             
1 18421U 87088A   25330.96656590  .01020003  71507-3  71003-3 0  9999
2 18421  82.4616  61.4230 0005612 267.8474  92.2170 16.16559068 88793
