CCSDS_OMM_VERS = 2.0
CREATION_DATE  = 
ORIGINATOR     = 

OBJECT_NAME    = SL-14 R/B
OBJECT_ID      = 1986-046B
CENTER_NAME    = EARTH
REF_FRAME      = TEME
TIME_SYSTEM    = UTC
MEAN_ELEMENT_THEORY = SGP/SGP4

EPOCH          = 2025-11-26T16:23:09.288960
MEAN_MOTION    = 14.85460280
ECCENTRICITY   = .0022439
INCLINATION    = 82.4817
RA_OF_ASC_NODE = 177.4781
ARG_OF_PERICENTER = 205.2333
MEAN_ANOMALY   = 154.7789

EPHEMERIS_TYPE = 0
CLASSIFICATION_TYPE = U
NORAD_CAT_ID   = 16792
ELEMENT_SET_NO = 999
REV_AT_EPOCH   = 11111
BSTAR          = .62257E-4
MEAN_MOTION_DOT = .563E-5
MEAN_MOTION_DDOT = 0

CCSDS_OMM_VERS = 2.0
CREATION_DATE  = 
ORIGINATOR     = 

OBJECT_NAME    = SL-14 R/B
OBJECT_ID      = 1986-055B
CENTER_NAME    = EARTH
REF_FRAME      = TEME
TIME_SYSTEM    = UTC
MEAN_ELEMENT_THEORY = SGP/SGP4

EPOCH          = 2025-11-26T17:56:20.869728
MEAN_MOTION    = 14.85506987
ECCENTRICITY   = .0017925
INCLINATION    = 82.5218
RA_OF_ASC_NODE = 223.3978
ARG_OF_PERICENTER = 316.5994
MEAN_ANOMALY   = 97.0999

EPHEMERIS_TYPE = 0
CLASSIFICATION_TYPE = U
NORAD_CAT_ID   = 16882
ELEMENT_SET_NO = 999
REV_AT_EPOCH   = 10408
BSTAR          = .72864E-4
MEAN_MOTION_DOT = .654E-5
MEAN_MOTION_DDOT = 0

CCSDS_OMM_VERS = 2.0
CREATION_DATE  = 
ORIGINATOR     = 

OBJECT_NAME    = AJISAI (EGS)
OBJECT_ID      = 1986-061A
CENTER_NAME    = EARTH
REF_FRAME      = TEME
TIME_SYSTEM    = UTC
MEAN_ELEMENT_THEORY = SGP/SGP4

EPOCH          = 2025-11-26T20:29:43.840032
MEAN_MOTION    = 12.44514115
ECCENTRICITY   = .0011242
INCLINATION    = 50.0110
RA_OF_ASC_NODE = 49.5639
ARG_OF_PERICENTER = 26.0176
MEAN_ANOMALY   = 95.9097

EPHEMERIS_TYPE = 0
CLASSIFICATION_TYPE = U
NORAD_CAT_ID   = 16908
ELEMENT_SET_NO = 999
REV_AT_EPOCH   = 45519
BSTAR          = .2441E-4
MEAN_MOTION_DOT = -.94E-6
MEAN_MOTION_DDOT = 0

CCSDS_OMM_VERS = 2.0
CREATION_DATE  = 
ORIGINATOR     = 

OBJECT_NAME    = COSMOS 1812
OBJECT_ID      = 1987-003A
CENTER_NAME    = EARTH
REF_FRAME      = TEME
TIME_SYSTEM    = UTC
MEAN_ELEMENT_THEORY = SGP/SGP4

EPOCH          = 2025-11-26T09:17:15.749376
MEAN_MOTION    = 15.71887185
ECCENTRICITY   = .00066076
INCLINATION    = 82.4879
RA_OF_ASC_NODE = 309.6691
ARG_OF_PERICENTER = 108.9028
MEAN_ANOMALY   = 251.2951

EPHEMERIS_TYPE = 0
CLASSIFICATION_TYPE = U
NORAD_CAT_ID   = 17295
ELEMENT_SET_NO = 999
REV_AT_EPOCH   = 12808
BSTAR          = .62996635E-3
MEAN_MOTION_DOT = .82516E-3
MEAN_MOTION_DDOT = 0

CCSDS_OMM_VERS = 2.0
CREATION_DATE  = 
ORIGINATOR     = 

OBJECT_NAME    = SL-14 R/B
OBJECT_ID      = 1987-024B
CENTER_NAME    = EARTH
REF_FRAME      = TEME
TIME_SYSTEM    = UTC
MEAN_ELEMENT_THEORY = SGP/SGP4

EPOCH          = 2025-11-26T16:28:05.348064
MEAN_MOTION    = 14.86000904
ECCENTRICITY   = .0016921
INCLINATION    = 82.5286
RA_OF_ASC_NODE = 189.5343
ARG_OF_PERICENTER = 239.7908
MEAN_ANOMALY   = 120.1634

EPHEMERIS_TYPE = 0
CLASSIFICATION_TYPE = U
NORAD_CAT_ID   = 17567
ELEMENT_SET_NO = 999
REV_AT_EPOCH   = 7283
BSTAR          = .63008E-4
MEAN_MOTION_DOT = .576E-5
MEAN_MOTION_DDOT = 0

CCSDS_OMM_VERS = 2.0
CREATION_DATE  = 
ORIGINATOR     = 

OBJECT_NAME    = COSMOS 1833
OBJECT_ID      = 1987-027A
CENTER_NAME    = EARTH
REF_FRAME      = TEME
TIME_SYSTEM    = UTC
MEAN_ELEMENT_THEORY = SGP/SGP4

EPOCH          = 2025-11-26T18:57:14.774112
MEAN_MOTION    = 14.13017931
ECCENTRICITY   = .0021864
INCLINATION    = 70.9128
RA_OF_ASC_NODE = 182.3073
ARG_OF_PERICENTER = 354.1726
MEAN_ANOMALY   = 5.9137

EPHEMERIS_TYPE = 0
CLASSIFICATION_TYPE = U
NORAD_CAT_ID   = 17589
ELEMENT_SET_NO = 999
REV_AT_EPOCH   = 99577
BSTAR          = -.58292E-5
MEAN_MOTION_DOT = -.59E-6
MEAN_MOTION_DDOT = 0

CCSDS_OMM_VERS = 2.0
CREATION_DATE  = 
ORIGINATOR     = 

OBJECT_NAME    = SL-16 R/B
OBJECT_ID      = 1987-027B
CENTER_NAME    = EARTH
REF_FRAME      = TEME
TIME_SYSTEM    = UTC
MEAN_ELEMENT_THEORY = SGP/SGP4

EPOCH          = 2025-11-26T18:42:39.353760
MEAN_MOTION    = 14.17149136
ECCENTRICITY   = .0007313
INCLINATION    = 71.0006
RA_OF_ASC_NODE = 133.3483
ARG_OF_PERICENTER = 276.0495
MEAN_ANOMALY   = 83.9795

EPHEMERIS_TYPE = 0
CLASSIFICATION_TYPE = U
NORAD_CAT_ID   = 17590
ELEMENT_SET_NO = 999
REV_AT_EPOCH   = 76
BSTAR          = .15962E-3
MEAN_MOTION_DOT = .274E-5
MEAN_MOTION_DDOT = 0

CCSDS_OMM_VERS = 2.0
CREATION_DATE  = 
ORIGINATOR     = 

OBJECT_NAME    = SL-14 R/B
OBJECT_ID      = 1987-038B
CENTER_NAME    = EARTH
REF_FRAME      = TEME
TIME_SYSTEM    = UTC
MEAN_ELEMENT_THEORY = SGP/SGP4

EPOCH          = 2025-11-26T16:41:42.235008
MEAN_MOTION    = 14.85239003
ECCENTRICITY   = .0020285
INCLINATION    = 82.5030
RA_OF_ASC_NODE = 33.8110
ARG_OF_PERICENTER = 141.7419
MEAN_ANOMALY   = 218.5241

EPHEMERIS_TYPE = 0
CLASSIFICATION_TYPE = U
NORAD_CAT_ID   = 17912
ELEMENT_SET_NO = 999
REV_AT_EPOCH   = 6394
BSTAR          = .6667E-4
MEAN_MOTION_DOT = .598E-5
MEAN_MOTION_DDOT = 0

CCSDS_OMM_VERS = 2.0
CREATION_DATE  = 
ORIGINATOR     = 

OBJECT_NAME    = COSMOS 1844
OBJECT_ID      = 1987-041A
CENTER_NAME    = EARTH
REF_FRAME      = TEME
TIME_SYSTEM    = UTC
MEAN_ELEMENT_THEORY = SGP/SGP4

EPOCH          = 2025-11-26T19:00:57.262752
MEAN_MOTION    = 14.14528477
ECCENTRICITY   = .003077
INCLINATION    = 70.8996
RA_OF_ASC_NODE = 251.2053
ARG_OF_PERICENTER = 181.9615
MEAN_ANOMALY   = 178.1391

EPHEMERIS_TYPE = 0
CLASSIFICATION_TYPE = U
NORAD_CAT_ID   = 17973
ELEMENT_SET_NO = 999
REV_AT_EPOCH   = 98903
BSTAR          = .12324E-4
MEAN_MOTION_DOT = -.25E-6
MEAN_MOTION_DDOT = 0

CCSDS_OMM_VERS = 2.0
CREATION_DATE  = 
ORIGINATOR     = 

OBJECT_NAME    = SL-14 R/B
OBJECT_ID      = 1987-055B
CENTER_NAME    = EARTH
REF_FRAME      = TEME
TIME_SYSTEM    = UTC
MEAN_ELEMENT_THEORY = SGP/SGP4

EPOCH          = 2025-11-26T18:11:04.916256
MEAN_MOTION    = 14.85495619
ECCENTRICITY   = .0020566
INCLINATION    = 82.4993
RA_OF_ASC_NODE = 86.0488
ARG_OF_PERICENTER = 358.1503
MEAN_ANOMALY   = 1.9633

EPHEMERIS_TYPE = 0
CLASSIFICATION_TYPE = U
NORAD_CAT_ID   = 18153
ELEMENT_SET_NO = 999
REV_AT_EPOCH   = 5465
BSTAR          = .74717E-4
MEAN_MOTION_DOT = .671E-5
MEAN_MOTION_DDOT = 0

CCSDS_OMM_VERS = 2.0
CREATION_DATE  = 
ORIGINATOR     = 

OBJECT_NAME    = COSMOS 1867
OBJECT_ID      = 1987-060A
CENTER_NAME    = EARTH
REF_FRAME      = TEME
TIME_SYSTEM    = UTC
MEAN_ELEMENT_THEORY = SGP/SGP4

EPOCH          = 2025-11-26T11:09:04.396608
MEAN_MOTION    = 14.31482403
ECCENTRICITY   = .001363
INCLINATION    = 65.0103
RA_OF_ASC_NODE = 235.7782
ARG_OF_PERICENTER = 269.4658
MEAN_ANOMALY   = 90.4864

EPHEMERIS_TYPE = 0
CLASSIFICATION_TYPE = U
NORAD_CAT_ID   = 18187
ELEMENT_SET_NO = 999
REV_AT_EPOCH   = 516
BSTAR          = .38804E-4
MEAN_MOTION_DOT = .3E-7
MEAN_MOTION_DDOT = 0

CCSDS_OMM_VERS = 2.0
CREATION_DATE  = 
ORIGINATOR     = 

OBJECT_NAME    = COSMOS 1892
OBJECT_ID      = 1987-088A
CENTER_NAME    = EARTH
REF_FRAME      = TEME
TIME_SYSTEM    = UTC
MEAN_ELEMENT_THEORY = SGP/SGP4

EPOCH          = 2025-11-26T23:11:51.293760
MEAN_MOTION    = 16.16559068
ECCENTRICITY   = .0005612
INCLINATION    = 82.4616
RA_OF_ASC_NODE = 61.4230
ARG_OF_PERICENTER = 267.8474
MEAN_ANOMALY   = 92.2170

EPHEMERIS_TYPE = 0
CLASSIFICATION_TYPE = U
NORAD_CAT_ID   = 18421
ELEMENT_SET_NO = 999
REV_AT_EPOCH   = 8879
BSTAR          = .71003E-3
MEAN_MOTION_DOT = .1020003E-1
MEAN_MOTION_DDOT = .71507E-3

